{
  "type": "FeatureCollection",
  "features": [
    {
      "type": "Feature",
      "properties": {
        "norad_id": 66570,
        "name": "STARLINK-35834",
        "group": "last-30-days",
        "lat": -32.7486777045614,
        "lon": 79.93417061547011,
        "alt_km": 417.1131618355621,
        "timestamp": "2025-12-12T07:43:19.258064+00:00",
        "meta_object_name": "STARLINK-35834",
        "meta_object_id": "2025-268P",
        "meta_epoch": "2025-12-11T20:00:01.999872",
        "meta_mean_motion": 15.50525681,
        "meta_eccentricity": 0.00015349,
        "meta_inclination": 43.0003,
        "meta_ra_of_asc_node": 126.4391,
        "meta_arg_of_pericenter": 269.8103,
        "meta_mean_anomaly": 188.2637,
        "meta_ephemeris_type": 0,
        "meta_classification_type": "U",
        "meta_norad_cat_id": 66570,
        "meta_element_set_no": 999,
        "meta_rev_at_epoch": 452,
        "meta_bstar": 0.0005488984,
        "meta_mean_motion_dot": 0.0003193,
        "meta_mean_motion_ddot": 0,
        "tle_line1": "1 66570U 25268P   25345.83335648  .00031930  00000+0  54890-3 0  9990",
        "tle_line2": "2 66570  43.0003 126.4391 0001534 269.8103 188.2637 15.50525681  4528"
      },
      "geometry": {
        "type": "Point",
        "coordinates": [
          79.93417061547011,
          -32.7486777045614
        ]
      }
    },
    {
      "type": "Feature",
      "properties": {
        "norad_id": 66571,
        "name": "STARLINK-35836",
        "group": "last-30-days",
        "lat": -31.787544935451812,
        "lon": 81.89108784385897,
        "alt_km": 416.9763391059969,
        "timestamp": "2025-12-12T07:43:19.258078+00:00",
        "meta_object_name": "STARLINK-35836",
        "meta_object_id": "2025-268Q",
        "meta_epoch": "2025-12-11T20:00:01.999872",
        "meta_mean_motion": 15.5052395,
        "meta_eccentricity": 0.00016823,
        "meta_inclination": 43.0002,
        "meta_ra_of_asc_node": 126.4341,
        "meta_arg_of_pericenter": 272.1232,
        "meta_mean_anomaly": 187.8732,
        "meta_ephemeris_type": 0,
        "meta_classification_type": "U",
        "meta_norad_cat_id": 66571,
        "meta_element_set_no": 999,
        "meta_rev_at_epoch": 452,
        "meta_bstar": 0.00053416247,
        "meta_mean_motion_dot": 0.00031058,
        "meta_mean_motion_ddot": 0,
        "tle_line1": "1 66571U 25268Q   25345.83335648  .00031058  00000+0  53416-3 0  9995",
        "tle_line2": "2 66571  43.0002 126.4341 0001682 272.1232 187.8732 15.50523950  4525"
      },
      "geometry": {
        "type": "Point",
        "coordinates": [
          81.89108784385897,
          -31.787544935451812
        ]
      }
    },
    {
      "type": "Feature",
      "properties": {
        "norad_id": 66572,
        "name": "STARLINK-35870",
        "group": "last-30-days",
        "lat": -30.799121291717363,
        "lon": 83.80460490613433,
        "alt_km": 416.9364332235891,
        "timestamp": "2025-12-12T07:43:19.258088+00:00",
        "meta_object_name": "STARLINK-35870",
        "meta_object_id": "2025-268R",
        "meta_epoch": "2025-12-11T20:00:01.999872",
        "meta_mean_motion": 15.50521996,
        "meta_eccentricity": 0.00016086,
        "meta_inclination": 43.0002,
        "meta_ra_of_asc_node": 126.4306,
        "meta_arg_of_pericenter": 275.6429,
        "meta_mean_anomaly": 186.2702,
        "meta_ephemeris_type": 0,
        "meta_classification_type": "U",
        "meta_norad_cat_id": 66572,
        "meta_element_set_no": 999,
        "meta_rev_at_epoch": 452,
        "meta_bstar": 0.00059473167,
        "meta_mean_motion_dot": 0.00034632,
        "meta_mean_motion_ddot": 0,
        "tle_line1": "1 66572U 25268R   25345.83335648  .00034632  00000+0  59473-3 0  9996",
        "tle_line2": "2 66572  43.0002 126.4306 0001608 275.6429 186.2702 15.50521996  4529"
      },
      "geometry": {
        "type": "Point",
        "coordinates": [
          83.80460490613433,
          -30.799121291717363
        ]
      }
    },
    {
      "type": "Feature",
      "properties": {
        "norad_id": 66573,
        "name": "STARLINK-35650",
        "group": "last-30-days",
        "lat": -29.778716753507084,
        "lon": 85.68369291941869,
        "alt_km": 416.7458237581459,
        "timestamp": "2025-12-12T07:43:19.258099+00:00",
        "meta_object_name": "STARLINK-35650",
        "meta_object_id": "2025-268S",
        "meta_epoch": "2025-12-11T20:00:01.999872",
        "meta_mean_motion": 15.5053305,
        "meta_eccentricity": 0.00019653,
        "meta_inclination": 43.0002,
        "meta_ra_of_asc_node": 126.4244,
        "meta_arg_of_pericenter": 271.9407,
        "meta_mean_anomaly": 191.8833,
        "meta_ephemeris_type": 0,
        "meta_classification_type": "U",
        "meta_norad_cat_id": 66573,
        "meta_element_set_no": 999,
        "meta_rev_at_epoch": 452,
        "meta_bstar": 0.00037641283,
        "meta_mean_motion_dot": 0.00021766,
        "meta_mean_motion_ddot": 0,
        "tle_line1": "1 66573U 25268S   25345.83335648  .00021766  00000+0  37641-3 0  9994",
        "tle_line2": "2 66573  43.0002 126.4244 0001965 271.9407 191.8833 15.50533050  4523"
      },
      "geometry": {
        "type": "Point",
        "coordinates": [
          85.68369291941869,
          -29.778716753507084
        ]
      }
    },
    {
      "type": "Feature",
      "properties": {
        "norad_id": 66574,
        "name": "STARLINK-35812",
        "group": "last-30-days",
        "lat": -28.736767134687728,
        "lon": 87.51787480182702,
        "alt_km": 416.99180051307485,
        "timestamp": "2025-12-12T07:43:19.258111+00:00",
        "meta_object_name": "STARLINK-35812",
        "meta_object_id": "2025-268T",
        "meta_epoch": "2025-12-11T20:00:01.999872",
        "meta_mean_motion": 15.50550705,
        "meta_eccentricity": 0.00015399,
        "meta_inclination": 43.0002,
        "meta_ra_of_asc_node": 126.4198,
        "meta_arg_of_pericenter": 272.8522,
        "meta_mean_anomaly": 192.8973,
        "meta_ephemeris_type": 0,
        "meta_classification_type": "U",
        "meta_norad_cat_id": 66574,
        "meta_element_set_no": 999,
        "meta_rev_at_epoch": 452,
        "meta_bstar": -0.0003990336,
        "meta_mean_motion_dot": -0.00023657,
        "meta_mean_motion_ddot": 0,
        "tle_line1": "1 66574U 25268T   25345.83335648 -.00023657  00000+0 -39903-3 0  9991",
        "tle_line2": "2 66574  43.0002 126.4198 0001539 272.8522 192.8973 15.50550705  4529"
      },
      "geometry": {
        "type": "Point",
        "coordinates": [
          87.51787480182702,
          -28.736767134687728
        ]
      }
    },
    {
      "type": "Feature",
      "properties": {
        "norad_id": 66575,
        "name": "STARLINK-35810",
        "group": "last-30-days",
        "lat": -27.66766088135646,
        "lon": 89.3196101862498,
        "alt_km": 416.91565983931287,
        "timestamp": "2025-12-12T07:43:19.258121+00:00",
        "meta_object_name": "STARLINK-35810",
        "meta_object_id": "2025-268U",
        "meta_epoch": "2025-12-11T20:00:01.999872",
        "meta_mean_motion": 15.50550963,
        "meta_eccentricity": 0.00015703,
        "meta_inclination": 43.0002,
        "meta_ra_of_asc_node": 126.4149,
        "meta_arg_of_pericenter": 274.4963,
        "meta_mean_anomaly": 193.1754,
        "meta_ephemeris_type": 0,
        "meta_classification_type": "U",
        "meta_norad_cat_id": 66575,
        "meta_element_set_no": 999,
        "meta_rev_at_epoch": 452,
        "meta_bstar": -0.00046291265,
        "meta_mean_motion_dot": -0.00027377,
        "meta_mean_motion_ddot": 0,
        "tle_line1": "1 66575U 25268U   25345.83335648 -.00027377  00000+0 -46291-3 0  9993",
        "tle_line2": "2 66575  43.0002 126.4149 0001570 274.4963 193.1754 15.50550963  4525"
      },
      "geometry": {
        "type": "Point",
        "coordinates": [
          89.3196101862498,
          -27.66766088135646
        ]
      }
    },
    {
      "type": "Feature",
      "properties": {
        "norad_id": 66576,
        "name": "STARLINK-35814",
        "group": "last-30-days",
        "lat": -26.578476936875752,
        "lon": 91.08158882599045,
        "alt_km": 416.8839320286788,
        "timestamp": "2025-12-12T07:43:19.258131+00:00",
        "meta_object_name": "STARLINK-35814",
        "meta_object_id": "2025-268V",
        "meta_epoch": "2025-12-11T20:00:01.999872",
        "meta_mean_motion": 15.50548507,
        "meta_eccentricity": 0.00015207,
        "meta_inclination": 43.0003,
        "meta_ra_of_asc_node": 126.4101,
        "meta_arg_of_pericenter": 273.421,
        "meta_mean_anomaly": 196.1621,
        "meta_ephemeris_type": 0,
        "meta_classification_type": "U",
        "meta_norad_cat_id": 66576,
        "meta_element_set_no": 999,
        "meta_rev_at_epoch": 452,
        "meta_bstar": -0.00031698033,
        "meta_mean_motion_dot": -0.00018872,
        "meta_mean_motion_ddot": 0,
        "tle_line1": "1 66576U 25268V   25345.83335648 -.00018872  00000+0 -31698-3 0  9999",
        "tle_line2": "2 66576  43.0003 126.4101 0001520 273.4210 196.1621 15.50548507  4521"
      },
      "geometry": {
        "type": "Point",
        "coordinates": [
          91.08158882599045,
          -26.578476936875752
        ]
      }
    }
  ]
}